{"shops":[{"postalCode":"411001","latitude":"18.5198051","shopName":"citadel","shopNumber":"d3","longitude":"73.9060204"},{"postalCode":"4110036","latitude":"18.5203044","shopName":"citadel enclave","shopNumber":"d3","longitude":"73.90675519999999"},{"postalCode":"411001","latitude":"18.5198051","shopName":"citadel","shopNumber":"d3","longitude":"73.9060204"},{"postalCode":"411001","latitude":"33.7147049","shopName":"Citadel","shopNumber":"123","longitude":"-117.7646939"},{"postalCode":"411001","latitude":"18.5198051","shopName":"Citadel","shopNumber":"d3","longitude":"73.9060204"},{"postalCode":"411001","latitude":"18.5198051","shopName":"Citadel","shopNumber":"d3","longitude":"73.9060204"},{"postalCode":"411001","latitude":"18.5198051","shopName":"Citadel","shopNumber":"d3","longitude":"73.9060204"},{"postalCode":"411001","latitude":"18.5198051","shopName":"Citadel","shopNumber":"d3","longitude":"73.9060204"},{"postalCode":"411001","latitude":"18.5198051","shopName":"Citadel","shopNumber":"d3","longitude":"73.9060204"},{"postalCode":"411001","latitude":"18.5198051","shopName":"Citadel","shopNumber":"d3","longitude":"73.9060204"},{"postalCode":"411001","latitude":"18.5198051","shopName":"Citadel","shopNumber":"d3","longitude":"73.9060204"},{"postalCode":"411001","latitude":"18.5198051","shopName":"Citadel","shopNumber":"d3","longitude":"73.9060204"},{"postalCode":"411001","latitude":"18.5198051","shopName":"Citadel","shopNumber":"d3","longitude":"73.9060204"},{"postalCode":"411001","latitude":"18.5198051","shopName":"Citadel","shopNumber":"d3","longitude":"73.9060204"},{"postalCode":"411001","latitude":"18.5198051","shopName":"Citadel","shopNumber":"d3","longitude":"73.9060204"},{"postalCode":"411001","latitude":"18.5198051","shopName":"Citadel","shopNumber":"d3","longitude":"73.9060204"},{"postalCode":"411001","latitude":"18.5198051","shopName":"Citadel","shopNumber":"d3","longitude":"73.9060204"},{"postalCode":"411001","latitude":"18.5198051","shopName":"Citadel","shopNumber":"d3","longitude":"73.9060204"},{"postalCode":"411001","latitude":"18.5198051","shopName":"Citadel","shopNumber":"d3","longitude":"73.9060204"},{"postalCode":"411036","latitude":"45.3434343","shopName":"CitadelEnclave","shopNumber":"d3","longitude":"56.3434343"},{"postalCode":"123456","latitude":"45.565777","shopName":"ABB","shopNumber":"123","longitude":"34.000000"},{"postalCode":"123456","latitude":"45.565777","shopName":"ABB","shopNumber":"123","longitude":"34.000000"},{"postalCode":"411001","latitude":"18.5198051","shopName":"Citadel","shopNumber":"d3","longitude":"73.9060204"},{"postalCode":"411001","latitude":"18.5198051","shopName":"Citadel","shopNumber":"d3","longitude":"73.9060204"},{"postalCode":"123456","latitude":"45.565777","shopName":"ABB","shopNumber":"123","longitude":"34.000000"},{"postalCode":"411001","latitude":"18.5198051","shopName":"Citadel","shopNumber":"d3","longitude":"73.9060204"}]}